OBJECT_NAME,OBJECT_ID,EPOCH,MEAN_MOTION,ECCENTRICITY,INCLINATION,RA_OF_ASC_NODE,ARG_OF_PERICENTER,MEAN_ANOMALY,EPHEMERIS_TYPE,CLASSIFICATION_TYPE,NORAD_CAT_ID,ELEMENT_SET_NO,REV_AT_EPOCH,BSTAR,MEAN_MOTION_DOT,MEAN_MOTION_DDOT
SKYSAT-C4,2016-058B,2026-07-02T12:21:41.139936,15.49073522,.0002682,96.9163,204.6492,136.9395,223.2067,0,U,41771,999,54784,.31364E-3,.16943E-3,0
SKYSAT-C5,2016-058C,2026-07-02T13:23:36.405600,15.34689761,.0001929,97.0457,223.5135,191.1565,168.9636,0,U,41772,999,54610,.24494E-3,.8161E-4,0
SKYSAT-C2,2016-058D,2026-07-02T12:10:05.068704,15.42422166,.0003095,97.0157,205.0276,35.1198,325.0254,0,U,41773,999,54741,.28849E-3,.12396E-3,0
SKYSAT-C3,2016-058E,2026-07-02T13:04:16.730112,15.53205210,.0001544,96.8997,213.8059,133.6553,226.4830,0,U,41774,999,54849,.36953E-3,.23154E-3,0
ALSAT-1B,2016-059C,2026-07-02T19:17:23.185248,14.72287439,.0009381,97.7744,191.8935,166.7274,193.4183,0,U,41785,999,52287,.11182E-3,.66E-5,0
PATHFINDER 1,2016-059E,2026-07-02T17:58:29.699040,14.67681464,.0029057,97.8169,182.3230,153.9784,206.2890,0,U,41787,999,52199,.13554E-3,.729E-5,0
SCATSAT 1,2016-059H,2026-07-02T15:11:18.323808,14.79561787,.0054286,98.1185,247.5581,196.9452,162.9947,0,U,41790,999,10387,.20536E-3,.1519E-4,0
GOKTURK 1A,2016-073A,2026-07-02T18:33:40.902048,14.62785822,.000139,98.1235,78.2028,79.0906,281.0452,0,U,41875,999,51110,.94375E-4,.435E-5,0
RESOURCESAT-2A,2016-074A,2026-07-02T18:23:06.822816,14.21605796,.0003027,98.7527,257.1430,53.3658,306.7798,0,U,41877,999,49651,.1259E-3,.232E-5,0
CARTOSAT-2D,2017-008A,2026-07-02T18:26:04.170048,15.19203696,.0004972,97.4097,242.7828,176.2175,183.9098,0,U,41948,999,51994,.24243E-3,.5037E-4,0
SENTINEL-2B,2017-013A,2026-07-02T17:34:00.561216,14.30822120,.0001203,98.5692,258.2870,88.4840,271.6481,0,U,42063,999,48686,.14491E-3,.336E-5,0
CARTOSAT-2E,2017-036C,2026-07-02T17:16:52.015872,15.19285917,.0002451,97.4261,243.2666,239.0794,121.0199,0,U,42767,999,50050,.23382E-3,.4866E-4,0
FORMOSAT-5,2017-049A,2026-07-02T18:38:10.071744,14.50904612,.0012137,98.2251,258.7398,40.6850,319.5250,0,U,42920,999,46893,.62165E-4,.202E-5,0
SENTINEL-5P,2017-064A,2026-07-02T18:42:09.251136,14.19521592,.0001049,98.7927,125.7998,91.5523,268.5773,0,U,42969,999,45177,.49954E-4,.61E-6,0
SKYSAT-C11,2017-068A,2026-07-02T15:52:55.003008,15.58712773,.0000535,97.4371,333.1753,154.6914,205.4368,0,U,42987,999,48565,.38676E-3,.29708E-3,0
SKYSAT-C10,2017-068B,2026-07-02T16:18:10.419264,15.34899737,.0001255,97.4529,320.6808,108.7825,251.3555,0,U,42988,999,48473,.29566E-3,.9928E-4,0
SKYSAT-C9,2017-068C,2026-07-02T16:27:57.344832,15.41945677,.0009394,97.4450,321.7717,84.4215,275.8103,0,U,42989,999,48514,.31763E-3,.13454E-3,0
SKYSAT-C8,2017-068D,2026-07-02T08:47:48.714720,15.37273223,.0001283,97.4546,320.2228,95.2772,264.8619,0,U,42990,999,48464,.31275E-3,.1134E-3,0
SKYSAT-C7,2017-068E,2026-07-02T16:27:58.760064,15.37230863,.0006698,97.4558,321.5375,61.1025,299.0891,0,U,42991,999,48475,.28531E-3,.10329E-3,0
SKYSAT-C6,2017-068F,2026-07-02T08:15:13.775616,15.34226054,.0005226,97.4592,321.1003,110.0082,250.1724,0,U,42992,999,48464,.32866E-3,.10816E-3,0
CARTOSAT-2F,2018-004A,2026-07-02T18:03:32.264064,15.19189886,.0001642,97.4779,243.2348,158.9344,201.1958,0,U,43111,999,46969,.26306E-3,.5467E-4,0
GAOFEN-1 02,2018-031A,2026-07-02T18:00:33.773760,14.76458699,.0002309,98.0521,246.2333,347.6115,12.5037,0,U,43259,999,44499,.17384E-3,.1158E-4,0
GAOFEN-1 03,2018-031B,2026-07-02T19:06:30.059136,14.76448295,.0003313,98.0510,246.1359,46.4771,313.6714,0,U,43260,999,44499,.12944E-3,.849E-5,0
GAOFEN-1 04,2018-031D,2026-07-02T18:31:36.924960,14.76455550,.0001822,98.0522,246.3043,60.9698,299.1694,0,U,43262,999,44498,.82642E-4,.523E-5,0
SENTINEL-3B,2018-039A,2026-07-02T11:28:21.061056,14.26739163,.0000853,98.6244,250.7906,115.3560,244.7708,0,U,43437,999,42630,.76068E-4,.14E-5,0
GAOFEN-5 01,2018-043A,2026-07-02T16:20:24.885312,14.60616345,.0002701,98.4579,155.5932,55.5650,304.5805,0,U,43461,999,43395,.88497E-4,.381E-5,0
GAOFEN-6,2018-048A,2026-07-02T19:03:02.797632,14.76368481,.0011918,98.0964,246.4659,116.4307,243.8126,0,U,43484,999,43569,-.19395E-4,-.187E-5,0
GAOFEN-11 01,2018-063A,2026-07-02T17:47:32.855136,15.55741313,.0002104,97.1283,250.5804,269.3473,90.7541,0,U,43585,999,44276,.24622E-3,.16875E-3,0
ICESAT-2,2018-070A,2026-07-02T17:44:09.490272,15.28158119,.0006115,92.0095,295.1809,91.3253,268.8697,0,U,43613,999,43483,.3409E-3,.9359E-4,0
HYSIS,2018-096A,2026-07-02T18:37:10.122240,14.78649241,.0001875,97.9836,250.4015,88.5741,271.5685,0,U,43719,999,40972,.16836E-3,.1182E-4,0
KAZSTSAT,2018-099AB,2026-07-02T13:47:58.884576,14.99922730,.0008299,97.4302,214.8068,26.1477,334.0165,0,U,43783,999,41361,.17615E-3,.2131E-4,0
