[{"name":"SKYSAT-C4","l1":"1 41771U 16058B   26183.51505949  .00016943  00000+0  31364-3 0  9990","l2":"2 41771  96.9163 204.6492 0002682 136.9395 223.2067 15.49073522547845","cat":"other"},{"name":"SKYSAT-C5","l1":"1 41772U 16058C   26183.55806025  .00008161  00000+0  24494-3 0  9993","l2":"2 41772  97.0457 223.5135 0001929 191.1565 168.9636 15.34689761546100","cat":"other"},{"name":"SKYSAT-C2","l1":"1 41773U 16058D   26183.50700311  .00012396  00000+0  28849-3 0  9993","l2":"2 41773  97.0157 205.0276 0003095  35.1198 325.0254 15.42422166547414","cat":"other"},{"name":"SKYSAT-C3","l1":"1 41774U 16058E   26183.54463808  .00023154  00000+0  36953-3 0  9994","l2":"2 41774  96.8997 213.8059 0001544 133.6553 226.4830 15.53205210548490","cat":"other"},{"name":"ALSAT-1B","l1":"1 41785U 16059C   26183.80374057  .00000660  00000+0  11182-3 0  9997","l2":"2 41785  97.7744 191.8935 0009381 166.7274 193.4183 14.72287439522875","cat":"other"},{"name":"PATHFINDER 1","l1":"1 41787U 16059E   26183.74895485  .00000729  00000+0  13554-3 0  9996","l2":"2 41787  97.8169 182.3230 0029057 153.9784 206.2890 14.67681464521998","cat":"other"},{"name":"SCATSAT 1","l1":"1 41790U 16059H   26183.63285097  .00001519  00000+0  20536-3 0  9996","l2":"2 41790  98.1185 247.5581 0054286 196.9452 162.9947 14.79561787103870","cat":"other"},{"name":"GOKTURK 1A","l1":"1 41875U 16073A   26183.77339007  .00000435  00000+0  94375-4 0  9991","l2":"2 41875  98.1235  78.2028 0001390  79.0906 281.0452 14.62785822511101","cat":"other"},{"name":"RESOURCESAT-2A","l1":"1 41877U 16074A   26183.76605119  .00000232  00000+0  12590-3 0  9996","l2":"2 41877  98.7527 257.1430 0003027  53.3658 306.7798 14.21605796496517","cat":"science"},{"name":"CARTOSAT-2D","l1":"1 41948U 17008A   26183.76810382  .00005037  00000+0  24243-3 0  9999","l2":"2 41948  97.4097 242.7828 0004972 176.2175 183.9098 15.19203696519946","cat":"science"},{"name":"SENTINEL-2B","l1":"1 42063U 17013A   26183.73195094  .00000336  00000+0  14491-3 0  9998","l2":"2 42063  98.5692 258.2870 0001203  88.4840 271.6481 14.30822120486860","cat":"science"},{"name":"CARTOSAT-2E","l1":"1 42767U 17036C   26183.72004648  .00004866  00000+0  23382-3 0  9998","l2":"2 42767  97.4261 243.2666 0002451 239.0794 121.0199 15.19285917500503","cat":"science"},{"name":"FORMOSAT-5","l1":"1 42920U 17049A   26183.77650546  .00000202  00000+0  62165-4 0  9995","l2":"2 42920  98.2251 258.7398 0012137  40.6850 319.5250 14.50904612468932","cat":"other"},{"name":"SENTINEL-5P","l1":"1 42969U 17064A   26183.77927374  .00000061  00000+0  49954-4 0  9995","l2":"2 42969  98.7927 125.7998 0001049  91.5523 268.5773 14.19521592451775","cat":"science"},{"name":"SKYSAT-C11","l1":"1 42987U 17068A   26183.66174772  .00029708  00000+0  38676-3 0  9990","l2":"2 42987  97.4371 333.1753 0000535 154.6914 205.4368 15.58712773485653","cat":"other"},{"name":"SKYSAT-C10","l1":"1 42988U 17068B   26183.67928726  .00009928  00000+0  29566-3 0  9998","l2":"2 42988  97.4529 320.6808 0001255 108.7825 251.3555 15.34899737484738","cat":"other"},{"name":"SKYSAT-C9","l1":"1 42989U 17068C   26183.68608038  .00013454  00000+0  31763-3 0  9992","l2":"2 42989  97.4450 321.7717 0009394  84.4215 275.8103 15.41945677485147","cat":"other"},{"name":"SKYSAT-C8","l1":"1 42990U 17068D   26183.36653605  .00011340  00000+0  31275-3 0  9999","l2":"2 42990  97.4546 320.2228 0001283  95.2772 264.8619 15.37273223484643","cat":"other"},{"name":"SKYSAT-C7","l1":"1 42991U 17068E   26183.68609676  .00010329  00000+0  28531-3 0  9991","l2":"2 42991  97.4558 321.5375 0006698  61.1025 299.0891 15.37230863484759","cat":"other"},{"name":"SKYSAT-C6","l1":"1 42992U 17068F   26183.34390944  .00010816  00000+0  32866-3 0  9997","l2":"2 42992  97.4592 321.1003 0005226 110.0082 250.1724 15.34226054484640","cat":"other"},{"name":"CARTOSAT-2F","l1":"1 43111U 18004A   26183.75245676  .00005467  00000+0  26306-3 0  9996","l2":"2 43111  97.4779 243.2348 0001642 158.9344 201.1958 15.19189886469694","cat":"science"},{"name":"GAOFEN-1 02","l1":"1 43259U 18031A   26183.75039090  .00001158  00000+0  17384-3 0  9999","l2":"2 43259  98.0521 246.2333 0002309 347.6115  12.5037 14.76458699444991","cat":"other"},{"name":"GAOFEN-1 03","l1":"1 43260U 18031B   26183.79618124  .00000849  00000+0  12944-3 0  9999","l2":"2 43260  98.0510 246.1359 0003313  46.4771 313.6714 14.76448295444994","cat":"other"},{"name":"GAOFEN-1 04","l1":"1 43262U 18031D   26183.77195515  .00000523  00000+0  82642-4 0  9995","l2":"2 43262  98.0522 246.3043 0001822  60.9698 299.1694 14.76455550444989","cat":"other"},{"name":"SENTINEL-3B","l1":"1 43437U 18039A   26183.47802154  .00000140  00000+0  76068-4 0  9998","l2":"2 43437  98.6244 250.7906 0000853 115.3560 244.7708 14.26739163426301","cat":"science"},{"name":"GAOFEN-5 01","l1":"1 43461U 18043A   26183.68084358  .00000381  00000+0  88497-4 0  9997","l2":"2 43461  98.4579 155.5932 0002701  55.5650 304.5805 14.60616345433953","cat":"other"},{"name":"GAOFEN-6","l1":"1 43484U 18048A   26183.79378238 -.00000187  00000+0 -19395-4 0  9999","l2":"2 43484  98.0964 246.4659 0011918 116.4307 243.8126 14.76368481435690","cat":"other"},{"name":"GAOFEN-11 01","l1":"1 43585U 18063A   26183.74135249  .00016875  00000+0  24622-3 0  9993","l2":"2 43585  97.1283 250.5804 0002104 269.3473  90.7541 15.55741313442766","cat":"other"},{"name":"ICESAT-2","l1":"1 43613U 18070A   26183.73899873  .00009359  00000+0  34090-3 0  9991","l2":"2 43613  92.0095 295.1809 0006115  91.3253 268.8697 15.28158119434833","cat":"other"},{"name":"HYSIS","l1":"1 43719U 18096A   26183.77581160  .00001182  00000+0  16836-3 0  9991","l2":"2 43719  97.9836 250.4015 0001875  88.5741 271.5685 14.78649241409721","cat":"other"},{"name":"KAZSTSAT","l1":"1 43783U 18099AB  26183.57498709  .00002131  00000+0  17615-3 0  9990","l2":"2 43783  97.4302 214.8068 0008299  26.1477 334.0165 14.99922730413619","cat":"other"}]